[{"OBJECT_NAME":"ONEWEB-0027","OBJECT_ID":"2020-020J","EPOCH":"2026-03-09T21:43:50.204352","MEAN_MOTION":13.17647701,"ECCENTRICITY":0.00022279,"INCLINATION":87.9161,"RA_OF_ASC_NODE":25.5568,"ARG_OF_PERICENTER":78.8398,"MEAN_ANOMALY":281.2984,"EPHEMERIS_TYPE":0,"CLASSIFICATION_TYPE":"U","NORAD_CAT_ID":45432,"ELEMENT_SET_NO":999,"REV_AT_EPOCH":29328,"BSTAR":6.1141197e-5,"MEAN_MOTION_DOT":3.7e-7,"MEAN_MOTION_DDOT":0},{"OBJECT_NAME":"SL-14 DEB","OBJECT_ID":"1991-056CQ","EPOCH":"2026-03-09T08:17:04.738272","MEAN_MOTION":13.26878818,"ECCENTRICITY":0.00448902,"INCLINATION":82.615,"RA_OF_ASC_NODE":198.4344,"ARG_OF_PERICENTER":217.5523,"MEAN_ANOMALY":142.2467,"EPHEMERIS_TYPE":0,"CLASSIFICATION_TYPE":"U","NORAD_CAT_ID":45356,"ELEMENT_SET_NO":999,"REV_AT_EPOCH":29119,"BSTAR":0.0011928281,"MEAN_MOTION_DOT":5.47e-6,"MEAN_MOTION_DDOT":0}]
